[{"OBJECT_NAME":"OBJECT C","OBJECT_ID":"2024-085C","EPOCH":"2026-03-09T22:49:58.289376","MEAN_MOTION":15.31893958,"ECCENTRICITY":0.00283931,"INCLINATION":97.3357,"RA_OF_ASC_NODE":145.6975,"ARG_OF_PERICENTER":37.3887,"MEAN_ANOMALY":322.9323,"EPHEMERIS_TYPE":0,"CLASSIFICATION_TYPE":"U","NORAD_CAT_ID":59679,"ELEMENT_SET_NO":999,"REV_AT_EPOCH":10244,"BSTAR":0.00039740634,"MEAN_MOTION_DOT":0.0001232,"MEAN_MOTION_DDOT":0},{"OBJECT_NAME":"STARLINK-33865","OBJECT_ID":"2025-119Q","EPOCH":"2026-03-09T01:00:07.897248","MEAN_MOTION":15.27570218,"ECCENTRICITY":0.00014478,"INCLINATION":43.0008,"RA_OF_ASC_NODE":310.4136,"ARG_OF_PERICENTER":253.2212,"MEAN_ANOMALY":106.8481,"EPHEMERIS_TYPE":0,"CLASSIFICATION_TYPE":"U","NORAD_CAT_ID":64247,"ELEMENT_SET_NO":999,"REV_AT_EPOCH":4404,"BSTAR":0.00089454665,"MEAN_MOTION_DOT":0.00024428,"MEAN_MOTION_DDOT":0}]
